{
  "type": "FeatureCollection",
  "features": [
    {
      "type": "Feature",
      "properties": {
        "norad_id": 66907,
        "name": "1998-067XT",
        "group": "last-30-days",
        "lat": 21.77987192030226,
        "lon": -67.01731356141336,
        "alt_km": 408.88234900081534,
        "timestamp": "2025-12-14T22:38:39.519382+00:00",
        "meta_object_name": "1998-067XT",
        "meta_object_id": "1998-067XT",
        "meta_epoch": "2025-12-14T03:26:43.609056",
        "meta_mean_motion": 15.5166553,
        "meta_eccentricity": 0.0004243,
        "meta_inclination": 51.6301,
        "meta_ra_of_asc_node": 135.4146,
        "meta_arg_of_pericenter": 234.9835,
        "meta_mean_anomaly": 125.0757,
        "meta_ephemeris_type": 0,
        "meta_classification_type": "U",
        "meta_norad_cat_id": 66907,
        "meta_element_set_no": 999,
        "meta_rev_at_epoch": 183,
        "meta_bstar": 0.0011319513,
        "meta_mean_motion_dot": 0.00068696,
        "meta_mean_motion_ddot": 0,
        "tle_line1": "1 66907U 98067XT  25348.14356029  .00068696  00000+0  11320-2 0  9993",
        "tle_line2": "2 66907  51.6301 135.4146 0004243 234.9835 125.0757 15.51665530  1833"
      },
      "geometry": {
        "type": "Point",
        "coordinates": [
          -67.01731356141336,
          21.77987192030226
        ]
      }
    },
    {
      "type": "Feature",
      "properties": {
        "norad_id": 66908,
        "name": "1998-067XU",
        "group": "last-30-days",
        "lat": 19.874312286011524,
        "lon": -65.21015926326625,
        "alt_km": 408.732621727223,
        "timestamp": "2025-12-14T22:38:39.519392+00:00",
        "meta_object_name": "1998-067XU",
        "meta_object_id": "1998-067XU",
        "meta_epoch": "2025-12-14T03:26:08.586816",
        "meta_mean_motion": 15.51757064,
        "meta_eccentricity": 0.00043369,
        "meta_inclination": 51.6297,
        "meta_ra_of_asc_node": 135.4117,
        "meta_arg_of_pericenter": 234.6858,
        "meta_mean_anomaly": 125.3727,
        "meta_ephemeris_type": 0,
        "meta_classification_type": "U",
        "meta_norad_cat_id": 66908,
        "meta_element_set_no": 999,
        "meta_rev_at_epoch": 183,
        "meta_bstar": 0.0012622899,
        "meta_mean_motion_dot": 0.00076995,
        "meta_mean_motion_ddot": 0,
        "tle_line1": "1 66908U 98067XU  25348.14315494  .00076995  00000+0  12623-2 0  9993",
        "tle_line2": "2 66908  51.6297 135.4117 0004336 234.6858 125.3727 15.51757064  1835"
      },
      "geometry": {
        "type": "Point",
        "coordinates": [
          -65.21015926326625,
          19.874312286011524
        ]
      }
    },
    {
      "type": "Feature",
      "properties": {
        "norad_id": 66909,
        "name": "SILVERSAT",
        "group": "last-30-days",
        "lat": 17.654594189213604,
        "lon": -63.180052274965966,
        "alt_km": 408.6420396823123,
        "timestamp": "2025-12-14T22:38:39.519402+00:00",
        "meta_object_name": "SILVERSAT",
        "meta_object_id": "1998-067XV",
        "meta_epoch": "2025-12-13T19:41:48.869664",
        "meta_mean_motion": 15.51822369,
        "meta_eccentricity": 0.00043322,
        "meta_inclination": 51.6299,
        "meta_ra_of_asc_node": 137.0079,
        "meta_arg_of_pericenter": 234.1355,
        "meta_mean_anomaly": 125.9233,
        "meta_ephemeris_type": 0,
        "meta_classification_type": "U",
        "meta_norad_cat_id": 66909,
        "meta_element_set_no": 999,
        "meta_rev_at_epoch": 178,
        "meta_bstar": 0.0012407437,
        "meta_mean_motion_dot": 0.0007584,
        "meta_mean_motion_ddot": 0,
        "tle_line1": "1 66909U 98067XV  25347.82070451  .00075840  00000+0  12407-2 0  9997",
        "tle_line2": "2 66909  51.6299 137.0079 0004332 234.1355 125.9233 15.51822369  1789"
      },
      "geometry": {
        "type": "Point",
        "coordinates": [
          -63.180052274965966,
          17.654594189213604
        ]
      }
    },
    {
      "type": "Feature",
      "properties": {
        "norad_id": 66910,
        "name": "1998-067XW",
        "group": "last-30-days",
        "lat": 10.610545905974924,
        "lon": -57.127787900467524,
        "alt_km": 407.9101640020481,
        "timestamp": "2025-12-14T22:38:39.519429+00:00",
        "meta_object_name": "1998-067XW",
        "meta_object_id": "1998-067XW",
        "meta_epoch": "2025-12-14T03:23:10.619232",
        "meta_mean_motion": 15.51967036,
        "meta_eccentricity": 0.00049581,
        "meta_inclination": 51.6295,
        "meta_ra_of_asc_node": 135.3982,
        "meta_arg_of_pericenter": 216.2881,
        "meta_mean_anomaly": 143.7773,
        "meta_ephemeris_type": 0,
        "meta_classification_type": "U",
        "meta_norad_cat_id": 66910,
        "meta_element_set_no": 999,
        "meta_rev_at_epoch": 183,
        "meta_bstar": 0.0010799417,
        "meta_mean_motion_dot": 0.00066221,
        "meta_mean_motion_ddot": 0,
        "tle_line1": "1 66910U 98067XW  25348.14109513  .00066221  00000+0  10799-2 0  9992",
        "tle_line2": "2 66910  51.6295 135.3982 0004958 216.2881 143.7773 15.51967036  1834"
      },
      "geometry": {
        "type": "Point",
        "coordinates": [
          -57.127787900467524,
          10.610545905974924
        ]
      }
    },
    {
      "type": "Feature",
      "properties": {
        "norad_id": 66911,
        "name": "1998-067XX",
        "group": "last-30-days",
        "lat": 5.736206825741841,
        "lon": -53.169968540354134,
        "alt_km": 407.6285238951468,
        "timestamp": "2025-12-14T22:38:39.519441+00:00",
        "meta_object_name": "1998-067XX",
        "meta_object_id": "1998-067XX",
        "meta_epoch": "2025-12-14T03:21:47.573280",
        "meta_mean_motion": 15.52259497,
        "meta_eccentricity": 0.0004664,
        "meta_inclination": 51.6298,
        "meta_ra_of_asc_node": 135.3916,
        "meta_arg_of_pericenter": 217.9466,
        "meta_mean_anomaly": 142.1196,
        "meta_ephemeris_type": 0,
        "meta_classification_type": "U",
        "meta_norad_cat_id": 66911,
        "meta_element_set_no": 999,
        "meta_rev_at_epoch": 182,
        "meta_bstar": 0.0012814197,
        "meta_mean_motion_dot": 0.00079628,
        "meta_mean_motion_ddot": 0,
        "tle_line1": "1 66911U 98067XX  25348.14013395  .00079628  00000+0  12814-2 0  9990",
        "tle_line2": "2 66911  51.6298 135.3916 0004664 217.9466 142.1196 15.52259497  1823"
      },
      "geometry": {
        "type": "Point",
        "coordinates": [
          -53.169968540354134,
          5.736206825741841
        ]
      }
    },
    {
      "type": "Feature",
      "properties": {
        "norad_id": 66912,
        "name": "1998-067XY",
        "group": "last-30-days",
        "lat": 27.713802067098708,
        "lon": -73.14010121493548,
        "alt_km": 409.2804710981791,
        "timestamp": "2025-12-14T22:38:39.519451+00:00",
        "meta_object_name": "1998-067XY",
        "meta_object_id": "1998-067XY",
        "meta_epoch": "2025-12-14T03:28:32.818656",
        "meta_mean_motion": 15.51307028,
        "meta_eccentricity": 0.00043936,
        "meta_inclination": 51.6302,
        "meta_ra_of_asc_node": 135.4229,
        "meta_arg_of_pericenter": 231.726,
        "meta_mean_anomaly": 128.3335,
        "meta_ephemeris_type": 0,
        "meta_classification_type": "U",
        "meta_norad_cat_id": 66912,
        "meta_element_set_no": 999,
        "meta_rev_at_epoch": 182,
        "meta_bstar": 0.00091761575,
        "meta_mean_motion_dot": 0.00054792,
        "meta_mean_motion_ddot": 0,
        "tle_line1": "1 66912U 98067XY  25348.14482429  .00054792  00000+0  91762-3 0  9994",
        "tle_line2": "2 66912  51.6302 135.4229 0004393 231.7260 128.3335 15.51307028  1827"
      },
      "geometry": {
        "type": "Point",
        "coordinates": [
          -73.14010121493548,
          27.713802067098708
        ]
      }
    },
    {
      "type": "Feature",
      "properties": {
        "norad_id": 66913,
        "name": "2025-284A",
        "group": "last-30-days",
        "lat": -43.421436378868165,
        "lon": -43.81565208125524,
        "alt_km": 508.06044908642616,
        "timestamp": "2025-12-14T22:38:39.519464+00:00",
        "meta_object_name": "2025-284A",
        "meta_object_id": "2025-284A",
        "meta_epoch": "2025-12-14T07:25:56.957664",
        "meta_mean_motion": 15.19005444,
        "meta_eccentricity": 0.00120135,
        "meta_inclination": 80.404,
        "meta_ra_of_asc_node": 127.7746,
        "meta_arg_of_pericenter": 199.4952,
        "meta_mean_anomaly": 160.5818,
        "meta_ephemeris_type": 0,
        "meta_classification_type": "U",
        "meta_norad_cat_id": 66913,
        "meta_element_set_no": 999,
        "meta_rev_at_epoch": 136,
        "meta_bstar": 0.00051452541,
        "meta_mean_motion_dot": 0.00010811,
        "meta_mean_motion_ddot": 0,
        "tle_line1": "1 66913U 25284A   25348.30968701  .00010811  00000+0  51453-3 0  9993",
        "tle_line2": "2 66913  80.4040 127.7746 0012013 199.4952 160.5818 15.19005444  1365"
      },
      "geometry": {
        "type": "Point",
        "coordinates": [
          -43.81565208125524,
          -43.421436378868165
        ]
      }
    }
  ]
}